{
  "type": "FeatureCollection",
  "features": [
    {
      "type": "Feature",
      "properties": {
        "norad_id": 45344,
        "name": "BEIDOU-3 G2 (C60)",
        "group": "gnss",
        "lat": 2.2300201756289755,
        "lon": 161.3728366978488,
        "alt_km": 35795.122168268135,
        "timestamp": "2025-12-17T23:38:07.097617+00:00",
        "meta_object_name": "BEIDOU-3 G2 (C60)",
        "meta_object_id": "2020-017A",
        "meta_epoch": "2025-12-17T15:25:10.515648",
        "meta_mean_motion": 1.002635,
        "meta_eccentricity": 0.0002583,
        "meta_inclination": 2.506,
        "meta_ra_of_asc_node": 44.0524,
        "meta_arg_of_pericenter": 247.3887,
        "meta_mean_anomaly": 106.3774,
        "meta_ephemeris_type": 0,
        "meta_classification_type": "U",
        "meta_norad_cat_id": 45344,
        "meta_element_set_no": 999,
        "meta_rev_at_epoch": 2143,
        "meta_bstar": 0,
        "meta_mean_motion_dot": -1.16e-06,
        "meta_mean_motion_ddot": 0,
        "tle_line1": "1 45344U 20017A   25351.64248282 -.00000116  00000+0  00000+0 0  9999",
        "tle_line2": "2 45344   2.5060  44.0524 0002583 247.3887 106.3774  1.00263500 21436"
      },
      "geometry": {
        "type": "Point",
        "coordinates": [
          161.3728366978488,
          2.2300201756289755
        ]
      }
    },
    {
      "type": "Feature",
      "properties": {
        "norad_id": 45358,
        "name": "COSMOS 2545 (760)",
        "group": "gnss",
        "lat": -62.97273898044867,
        "lon": -110.74054335097141,
        "alt_km": 19110.562722009774,
        "timestamp": "2025-12-17T23:38:07.097638+00:00",
        "meta_object_name": "COSMOS 2545 (760)",
        "meta_object_id": "2020-018A",
        "meta_epoch": "2025-12-16T05:06:52.711776",
        "meta_mean_motion": 2.13102549,
        "meta_eccentricity": 0.00116565,
        "meta_inclination": 64.4672,
        "meta_ra_of_asc_node": 318.8472,
        "meta_arg_of_pericenter": 249.26,
        "meta_mean_anomaly": 110.6088,
        "meta_ephemeris_type": 0,
        "meta_classification_type": "U",
        "meta_norad_cat_id": 45358,
        "meta_element_set_no": 999,
        "meta_rev_at_epoch": 4476,
        "meta_bstar": 0,
        "meta_mean_motion_dot": -7e-07,
        "meta_mean_motion_ddot": 0,
        "tle_line1": "1 45358U 20018A   25350.21311009 -.00000070  00000+0  00000+0 0  9994",
        "tle_line2": "2 45358  64.4672 318.8472 0011656 249.2600 110.6088  2.13102549 44763"
      },
      "geometry": {
        "type": "Point",
        "coordinates": [
          -110.74054335097141,
          -62.97273898044867
        ]
      }
    },
    {
      "type": "Feature",
      "properties": {
        "norad_id": 45807,
        "name": "BEIDOU-3 G3 (C61)",
        "group": "gnss",
        "lat": 1.623686983767441,
        "lon": -168.0217671815403,
        "alt_km": 35812.67684186109,
        "timestamp": "2025-12-17T23:38:07.097656+00:00",
        "meta_object_name": "BEIDOU-3 G3 (C61)",
        "meta_object_id": "2020-040A",
        "meta_epoch": "2025-12-17T16:37:31.192032",
        "meta_mean_motion": 1.00271872,
        "meta_eccentricity": 0.00063902,
        "meta_inclination": 2.003,
        "meta_ra_of_asc_node": 66.627,
        "meta_arg_of_pericenter": 309.042,
        "meta_mean_anomaly": 70.8585,
        "meta_ephemeris_type": 0,
        "meta_classification_type": "U",
        "meta_norad_cat_id": 45807,
        "meta_element_set_no": 999,
        "meta_rev_at_epoch": 2025,
        "meta_bstar": 0,
        "meta_mean_motion_dot": -3.31e-06,
        "meta_mean_motion_ddot": 0,
        "tle_line1": "1 45807U 20040A   25351.69272213 -.00000331  00000+0  00000+0 0  9994",
        "tle_line2": "2 45807   2.0030  66.6270 0006390 309.0420  70.8585  1.00271872 20254"
      },
      "geometry": {
        "type": "Point",
        "coordinates": [
          -168.0217671815403,
          1.623686983767441
        ]
      }
    },
    {
      "type": "Feature",
      "properties": {
        "norad_id": 45854,
        "name": "GPS BIII-3  (PRN 23)",
        "group": "gnss",
        "lat": 7.313620808532285,
        "lon": -148.86177419918906,
        "alt_km": 20045.57919529935,
        "timestamp": "2025-12-17T23:38:07.097674+00:00",
        "meta_object_name": "GPS BIII-3  (PRN 23)",
        "meta_object_id": "2020-041A",
        "meta_epoch": "2025-12-17T06:02:11.568192",
        "meta_mean_motion": 2.00562016,
        "meta_eccentricity": 0.00605926,
        "meta_inclination": 56.5499,
        "meta_ra_of_asc_node": 36.0099,
        "meta_arg_of_pericenter": 203.5861,
        "meta_mean_anomaly": 158.5614,
        "meta_ephemeris_type": 0,
        "meta_classification_type": "U",
        "meta_norad_cat_id": 45854,
        "meta_element_set_no": 999,
        "meta_rev_at_epoch": 4039,
        "meta_bstar": 0,
        "meta_mean_motion_dot": -7.7e-07,
        "meta_mean_motion_ddot": 0,
        "tle_line1": "1 45854U 20041A   25351.25152278 -.00000077  00000+0  00000+0 0  9994",
        "tle_line2": "2 45854  56.5499  36.0099 0060592 203.5861 158.5614  2.00562016 40398"
      },
      "geometry": {
        "type": "Point",
        "coordinates": [
          -148.86177419918906,
          7.313620808532285
        ]
      }
    },
    {
      "type": "Feature",
      "properties": {
        "norad_id": 46114,
        "name": "GALAXY 30 (WAAS/PRN 135)",
        "group": "gnss",
        "lat": -0.0287743106172455,
        "lon": -43.605498167959084,
        "alt_km": 35780.78428426434,
        "timestamp": "2025-12-17T23:38:07.097695+00:00",
        "meta_object_name": "GALAXY 30 (WAAS/PRN 135)",
        "meta_object_id": "2020-056C",
        "meta_epoch": "2025-12-16T10:32:38.625216",
        "meta_mean_motion": 1.00271809,
        "meta_eccentricity": 0.00020504,
        "meta_inclination": 0.0174,
        "meta_ra_of_asc_node": 8.9673,
        "meta_arg_of_pericenter": 254.0657,
        "meta_mean_anomaly": 215.4609,
        "meta_ephemeris_type": 0,
        "meta_classification_type": "U",
        "meta_norad_cat_id": 46114,
        "meta_element_set_no": 999,
        "meta_rev_at_epoch": 1946,
        "meta_bstar": 0,
        "meta_mean_motion_dot": 6e-07,
        "meta_mean_motion_ddot": 0,
        "tle_line1": "1 46114U 20056C   25350.43933594  .00000060  00000+0  00000+0 0  9998",
        "tle_line2": "2 46114   0.0174   8.9673 0002050 254.0657 215.4609  1.00271809 19464"
      },
      "geometry": {
        "type": "Point",
        "coordinates": [
          -43.605498167959084,
          -0.0287743106172455
        ]
      }
    },
    {
      "type": "Feature",
      "properties": {
        "norad_id": 46805,
        "name": "COSMOS 2547 (705K)",
        "group": "gnss",
        "lat": 39.880834089134815,
        "lon": -4.877460570579474,
        "alt_km": 19126.435589168203,
        "timestamp": "2025-12-17T23:38:07.097716+00:00",
        "meta_object_name": "COSMOS 2547 (705K)",
        "meta_object_id": "2020-075A",
        "meta_epoch": "2025-12-17T08:09:16.413120",
        "meta_mean_motion": 2.13100135,
        "meta_eccentricity": 0.0006183,
        "meta_inclination": 64.5962,
        "meta_ra_of_asc_node": 198.5428,
        "meta_arg_of_pericenter": 228.3963,
        "meta_mean_anomaly": 131.633,
        "meta_ephemeris_type": 0,
        "meta_classification_type": "U",
        "meta_norad_cat_id": 46805,
        "meta_element_set_no": 999,
        "meta_rev_at_epoch": 4003,
        "meta_bstar": 0,
        "meta_mean_motion_dot": 1.12e-06,
        "meta_mean_motion_ddot": 0,
        "tle_line1": "1 46805U 20075A   25351.33977330  .00000112  00000+0  00000+0 0  9990",
        "tle_line2": "2 46805  64.5962 198.5428 0006183 228.3963 131.6330  2.13100135 40035"
      },
      "geometry": {
        "type": "Point",
        "coordinates": [
          -4.877460570579474,
          39.880834089134815
        ]
      }
    },
    {
      "type": "Feature",
      "properties": {
        "norad_id": 46826,
        "name": "GPS BIII-4  (PRN 14)",
        "group": "gnss",
        "lat": 29.856970178984632,
        "lon": 13.500622977987467,
        "alt_km": 20095.16818197398,
        "timestamp": "2025-12-17T23:38:07.097734+00:00",
        "meta_object_name": "GPS BIII-4  (PRN 14)",
        "meta_object_id": "2020-078A",
        "meta_epoch": "2025-12-16T01:06:13.902336",
        "meta_mean_motion": 2.00566891,
        "meta_eccentricity": 0.00647559,
        "meta_inclination": 54.0145,
        "meta_ra_of_asc_node": 218.2068,
        "meta_arg_of_pericenter": 203.3837,
        "meta_mean_anomaly": 339.3927,
        "meta_ephemeris_type": 0,
        "meta_classification_type": "U",
        "meta_norad_cat_id": 46826,
        "meta_element_set_no": 999,
        "meta_rev_at_epoch": 3783,
        "meta_bstar": 0,
        "meta_mean_motion_dot": 6.7e-07,
        "meta_mean_motion_ddot": 0,
        "tle_line1": "1 46826U 20078A   25350.04599424  .00000067  00000+0  00000+0 0  9996",
        "tle_line2": "2 46826  54.0145 218.2068 0064755 203.3837 339.3927  2.00566891 37831"
      },
      "geometry": {
        "type": "Point",
        "coordinates": [
          13.500622977987467,
          29.856970178984632
        ]
      }
    }
  ]
}